[{"CCSDS_OMM_VERS":"3.0","COMMENT":"GENERATED VIA SPACE-TRACK.ORG API","CREATION_DATE":"2026-05-30T23:56:33","ORIGINATOR":"18 SPCS","OBJECT_NAME":"BEIDOU 3M12","OBJECT_ID":"2018-067B","CENTER_NAME":"EARTH","REF_FRAME":"TEME","TIME_SYSTEM":"UTC","MEAN_ELEMENT_THEORY":"SGP4","EPOCH":"2026-05-30T07:47:09.749760","MEAN_MOTION":"1.86227292","ECCENTRICITY":"0.00045090","INCLINATION":"54.1764","RA_OF_ASC_NODE":"181.6095","ARG_OF_PERICENTER":"14.1807","MEAN_ANOMALY":"345.9095","EPHEMERIS_TYPE":"0","CLASSIFICATION_TYPE":"U","NORAD_CAT_ID":"43603","ELEMENT_SET_NO":"999","REV_AT_EPOCH":"5281","BSTAR":"0.00000000000000","MEAN_MOTION_DOT":"0.00000086","MEAN_MOTION_DDOT":"0.0000000000000","SEMIMAJOR_AXIS":"27906.559","PERIOD":"773.249","APOAPSIS":"21541.007","PERIAPSIS":"21515.841","OBJECT_TYPE":"PAYLOAD","RCS_SIZE":"LARGE","COUNTRY_CODE":"PRC","LAUNCH_DATE":"2018-08-24","SITE":"XSC","DECAY_DATE":null,"FILE":"5223391","GP_ID":"326136710","TLE_LINE0":"0 BEIDOU 3M12","TLE_LINE1":"1 43603U 18067B   26150.32441840  .00000086  00000-0  00000+0 0  9991","TLE_LINE2":"2 43603  54.1764 181.6095 0004509  14.1807 345.9095  1.86227292 52814"},{"CCSDS_OMM_VERS":"3.0","COMMENT":"GENERATED VIA SPACE-TRACK.ORG API","CREATION_DATE":"2026-05-30T16:46:26","ORIGINATOR":"18 SPCS","OBJECT_NAME":"BEIDOU 3M12","OBJECT_ID":"2018-067B","CENTER_NAME":"EARTH","REF_FRAME":"TEME","TIME_SYSTEM":"UTC","MEAN_ELEMENT_THEORY":"SGP4","EPOCH":"2026-05-30T07:47:09.777408","MEAN_MOTION":"1.86227271","ECCENTRICITY":"0.00045040","INCLINATION":"54.1763","RA_OF_ASC_NODE":"181.6094","ARG_OF_PERICENTER":"14.2183","MEAN_ANOMALY":"345.8720","EPHEMERIS_TYPE":"0","CLASSIFICATION_TYPE":"U","NORAD_CAT_ID":"43603","ELEMENT_SET_NO":"999","REV_AT_EPOCH":"5281","BSTAR":"0.00000000000000","MEAN_MOTION_DOT":"0.00000086","MEAN_MOTION_DDOT":"0.0000000000000","SEMIMAJOR_AXIS":"27906.561","PERIOD":"773.249","APOAPSIS":"21540.995","PERIAPSIS":"21515.857","OBJECT_TYPE":"PAYLOAD","RCS_SIZE":"LARGE","COUNTRY_CODE":"PRC","LAUNCH_DATE":"2018-08-24","SITE":"XSC","DECAY_DATE":null,"FILE":"5222570","GP_ID":"326021470","TLE_LINE0":"0 BEIDOU 3M12","TLE_LINE1":"1 43603U 18067B   26150.32441872  .00000086  00000-0  00000+0 0  9996","TLE_LINE2":"2 43603  54.1763 181.6094 0004504  14.2183 345.8720  1.86227271 52816"},{"CCSDS_OMM_VERS":"3.0","COMMENT":"GENERATED VIA SPACE-TRACK.ORG API","CREATION_DATE":"2026-05-30T21:02:43","ORIGINATOR":"18 SPCS","OBJECT_NAME":"BEIDOU 3M12","OBJECT_ID":"2018-067B","CENTER_NAME":"EARTH","REF_FRAME":"TEME","TIME_SYSTEM":"UTC","MEAN_ELEMENT_THEORY":"SGP4","EPOCH":"2026-05-30T07:47:09.778272","MEAN_MOTION":"1.86227271","ECCENTRICITY":"0.00045036","INCLINATION":"54.1763","RA_OF_ASC_NODE":"181.6094","ARG_OF_PERICENTER":"14.2183","MEAN_ANOMALY":"345.8720","EPHEMERIS_TYPE":"0","CLASSIFICATION_TYPE":"U","NORAD_CAT_ID":"43603","ELEMENT_SET_NO":"999","REV_AT_EPOCH":"5281","BSTAR":"0.00000000000000","MEAN_MOTION_DOT":"0.00000086","MEAN_MOTION_DDOT":"0.0000000000000","SEMIMAJOR_AXIS":"27906.561","PERIOD":"773.249","APOAPSIS":"21540.994","PERIAPSIS":"21515.858","OBJECT_TYPE":"PAYLOAD","RCS_SIZE":"LARGE","COUNTRY_CODE":"PRC","LAUNCH_DATE":"2018-08-24","SITE":"XSC","DECAY_DATE":null,"FILE":"5223167","GP_ID":"326096712","TLE_LINE0":"0 BEIDOU 3M12","TLE_LINE1":"1 43603U 18067B   26150.32441873  .00000086  00000-0  00000-0 0  9998","TLE_LINE2":"2 43603  54.1763 181.6094 0004504  14.2183 345.8720  1.86227271 52816"},{"CCSDS_OMM_VERS":"3.0","COMMENT":"GENERATED VIA SPACE-TRACK.ORG API","CREATION_DATE":"2026-06-02T10:48:41","ORIGINATOR":"18 SPCS","OBJECT_NAME":"BEIDOU 3M12","OBJECT_ID":"2018-067B","CENTER_NAME":"EARTH","REF_FRAME":"TEME","TIME_SYSTEM":"UTC","MEAN_ELEMENT_THEORY":"SGP4","EPOCH":"2026-06-02T00:13:15.056256","MEAN_MOTION":"1.86227328","ECCENTRICITY":"0.00045093","INCLINATION":"54.1768","RA_OF_ASC_NODE":"181.5183","ARG_OF_PERICENTER":"14.0640","MEAN_ANOMALY":"346.0157","EPHEMERIS_TYPE":"0","CLASSIFICATION_TYPE":"U","NORAD_CAT_ID":"43603","ELEMENT_SET_NO":"999","REV_AT_EPOCH":"5286","BSTAR":"0.00000000000000","MEAN_MOTION_DOT":"0.00000069","MEAN_MOTION_DDOT":"0.0000000000000","SEMIMAJOR_AXIS":"27906.555","PERIOD":"773.248","APOAPSIS":"21541.004","PERIAPSIS":"21515.837","OBJECT_TYPE":"PAYLOAD","RCS_SIZE":"LARGE","COUNTRY_CODE":"PRC","LAUNCH_DATE":"2018-08-24","SITE":"XSC","DECAY_DATE":null,"FILE":"5227273","GP_ID":"326642575","TLE_LINE0":"0 BEIDOU 3M12","TLE_LINE1":"1 43603U 18067B   26153.00920204  .00000069  00000-0  00000-0 0  9997","TLE_LINE2":"2 43603  54.1768 181.5183 0004509  14.0640 346.0157  1.86227328 52865"},{"CCSDS_OMM_VERS":"3.0","COMMENT":"GENERATED VIA SPACE-TRACK.ORG API","CREATION_DATE":"2026-06-03T21:59:02","ORIGINATOR":"18 SPCS","OBJECT_NAME":"BEIDOU 3M12","OBJECT_ID":"2018-067B","CENTER_NAME":"EARTH","REF_FRAME":"TEME","TIME_SYSTEM":"UTC","MEAN_ELEMENT_THEORY":"SGP4","EPOCH":"2026-06-03T01:59:40.939872","MEAN_MOTION":"1.86227368","ECCENTRICITY":"0.00044864","INCLINATION":"54.1770","RA_OF_ASC_NODE":"181.4820","ARG_OF_PERICENTER":"14.1866","MEAN_ANOMALY":"345.8879","EPHEMERIS_TYPE":"0","CLASSIFICATION_TYPE":"U","NORAD_CAT_ID":"43603","ELEMENT_SET_NO":"999","REV_AT_EPOCH":"5288","BSTAR":"0.00000000000000","MEAN_MOTION_DOT":"0.00000067","MEAN_MOTION_DDOT":"0.0000000000000","SEMIMAJOR_AXIS":"27906.551","PERIOD":"773.248","APOAPSIS":"21540.937","PERIAPSIS":"21515.896","OBJECT_TYPE":"PAYLOAD","RCS_SIZE":"LARGE","COUNTRY_CODE":"PRC","LAUNCH_DATE":"2018-08-24","SITE":"XSC","DECAY_DATE":null,"FILE":"5228922","GP_ID":"326927599","TLE_LINE0":"0 BEIDOU 3M12","TLE_LINE1":"1 43603U 18067B   26154.08311273  .00000067  00000-0  00000-0 0  9994","TLE_LINE2":"2 43603  54.1770 181.4820 0004486  14.1866 345.8879  1.86227368 52884"},{"CCSDS_OMM_VERS":"3.0","COMMENT":"GENERATED VIA SPACE-TRACK.ORG API","CREATION_DATE":"2026-06-03T15:47:14","ORIGINATOR":"18 SPCS","OBJECT_NAME":"BEIDOU 3M12","OBJECT_ID":"2018-067B","CENTER_NAME":"EARTH","REF_FRAME":"TEME","TIME_SYSTEM":"UTC","MEAN_ELEMENT_THEORY":"SGP4","EPOCH":"2026-06-03T01:59:40.939872","MEAN_MOTION":"1.86227368","ECCENTRICITY":"0.00044860","INCLINATION":"54.1770","RA_OF_ASC_NODE":"181.4820","ARG_OF_PERICENTER":"14.1866","MEAN_ANOMALY":"345.8879","EPHEMERIS_TYPE":"0","CLASSIFICATION_TYPE":"U","NORAD_CAT_ID":"43603","ELEMENT_SET_NO":"999","REV_AT_EPOCH":"5288","BSTAR":"0.00000000000000","MEAN_MOTION_DOT":"0.00000067","MEAN_MOTION_DDOT":"0.0000000000000","SEMIMAJOR_AXIS":"27906.551","PERIOD":"773.248","APOAPSIS":"21540.935","PERIAPSIS":"21515.898","OBJECT_TYPE":"PAYLOAD","RCS_SIZE":"LARGE","COUNTRY_CODE":"PRC","LAUNCH_DATE":"2018-08-24","SITE":"XSC","DECAY_DATE":null,"FILE":"5228466","GP_ID":"326874443","TLE_LINE0":"0 BEIDOU 3M12","TLE_LINE1":"1 43603U 18067B   26154.08311273  .00000067  00000-0  00000+0 0  9993","TLE_LINE2":"2 43603  54.1770 181.4820 0004486  14.1866 345.8879  1.86227368 52884"},{"CCSDS_OMM_VERS":"3.0","COMMENT":"GENERATED VIA SPACE-TRACK.ORG API","CREATION_DATE":"2026-06-04T04:32:25","ORIGINATOR":"18 SPCS","OBJECT_NAME":"BEIDOU 3M12","OBJECT_ID":"2018-067B","CENTER_NAME":"EARTH","REF_FRAME":"TEME","TIME_SYSTEM":"UTC","MEAN_ELEMENT_THEORY":"SGP4","EPOCH":"2026-06-03T14:52:53.953824","MEAN_MOTION":"1.86227374","ECCENTRICITY":"0.00044862","INCLINATION":"54.1771","RA_OF_ASC_NODE":"181.4639","ARG_OF_PERICENTER":"14.2691","MEAN_ANOMALY":"345.8030","EPHEMERIS_TYPE":"0","CLASSIFICATION_TYPE":"U","NORAD_CAT_ID":"43603","ELEMENT_SET_NO":"999","REV_AT_EPOCH":"5289","BSTAR":"0.00000000000000","MEAN_MOTION_DOT":"0.00000068","MEAN_MOTION_DDOT":"0.0000000000000","SEMIMAJOR_AXIS":"27906.551","PERIOD":"773.248","APOAPSIS":"21540.935","PERIAPSIS":"21515.896","OBJECT_TYPE":"PAYLOAD","RCS_SIZE":"LARGE","COUNTRY_CODE":"PRC","LAUNCH_DATE":"2018-08-24","SITE":"XSC","DECAY_DATE":null,"FILE":"5229409","GP_ID":"327006738","TLE_LINE0":"0 BEIDOU 3M12","TLE_LINE1":"1 43603U 18067B   26154.62006891  .00000068  00000-0  00000-0 0  9992","TLE_LINE2":"2 43603  54.1771 181.4639 0004486  14.2691 345.8030  1.86227374 52897"},{"CCSDS_OMM_VERS":"3.0","COMMENT":"GENERATED VIA SPACE-TRACK.ORG API","CREATION_DATE":"2026-06-04T06:26:29","ORIGINATOR":"18 SPCS","OBJECT_NAME":"BEIDOU 3M12","OBJECT_ID":"2018-067B","CENTER_NAME":"EARTH","REF_FRAME":"TEME","TIME_SYSTEM":"UTC","MEAN_ELEMENT_THEORY":"SGP4","EPOCH":"2026-06-03T14:52:53.953824","MEAN_MOTION":"1.86227374","ECCENTRICITY":"0.00044860","INCLINATION":"54.1771","RA_OF_ASC_NODE":"181.4639","ARG_OF_PERICENTER":"14.2691","MEAN_ANOMALY":"345.8030","EPHEMERIS_TYPE":"0","CLASSIFICATION_TYPE":"U","NORAD_CAT_ID":"43603","ELEMENT_SET_NO":"999","REV_AT_EPOCH":"5289","BSTAR":"0.00000000000000","MEAN_MOTION_DOT":"0.00000068","MEAN_MOTION_DDOT":"0.0000000000000","SEMIMAJOR_AXIS":"27906.551","PERIOD":"773.248","APOAPSIS":"21540.935","PERIAPSIS":"21515.897","OBJECT_TYPE":"PAYLOAD","RCS_SIZE":"LARGE","COUNTRY_CODE":"PRC","LAUNCH_DATE":"2018-08-24","SITE":"XSC","DECAY_DATE":null,"FILE":"5229641","GP_ID":"327050831","TLE_LINE0":"0 BEIDOU 3M12","TLE_LINE1":"1 43603U 18067B   26154.62006891  .00000068  00000-0  00000+0 0  9991","TLE_LINE2":"2 43603  54.1771 181.4639 0004486  14.2691 345.8030  1.86227374 52897"}]